FLOCK 3P-47             
1 42032U 17008CN  17247.91865611  .00006383  00000-0  27490-3 0  9990
2 42032  97.4896 309.0913 0006497 299.1295  60.9291 15.22928558 30494
FLOCK 3P-44             
1 42033U 17008CP  17247.91261376  .00008246  00000-0  35401-3 0  9990
2 42033  97.4899 309.1039 0006469 301.4582  58.6022 15.22943250 29246
FLOCK 3P-64             
1 42034U 17008CQ  17247.91167017  .00004034  00000-0  17492-3 0  9999
2 42034  97.4894 309.0951 0006383 301.8104  58.2510 15.22926047 30664
FLOCK 3P-63             
1 42035U 17008CR  17247.91078423  .00006258  00000-0  26930-3 0  9999
2 42035  97.4893 309.0932 0006385 301.5933  58.4680 15.22966155 28630
FLOCK 3P-62             
1 42036U 17008CS  17247.89991475  .00003554  00000-0  15402-3 0  9996
2 42036  97.4894 309.1114 0006482 303.3214  56.7402 15.23028417 29832
FLOCK 3P-38             
1 42037U 17008CT  17247.90887917  .00003826  00000-0  16605-3 0  9992
2 42037  97.4893 309.0963 0006109 302.9661  57.0988 15.22929114 30614
FLOCK 3P-39             
1 42038U 17008CU  17247.90670250  .00002304  00000-0  10121-3 0  9990
2 42038  97.4888 309.0911 0006347 302.5828  57.4795 15.22928337 30567
FLOCK 3P-15             
1 42039U 17008CV  17247.91073183  .00002384  00000-0  10465-3 0  9993
2 42039  97.4892 309.0938 0006213 302.4004  57.6631 15.22924638 29849
FLOCK 3P-13             
1 42040U 17008CW  17247.90508193  .00002052  00000-0  90480-4 0  9996
2 42040  97.4894 309.1051 0006214 302.9572  57.1066 15.22931424 29833
FLOCK 3P-55             
1 42041U 17008CX  17247.88424925  .00002116  00000-0  92922-4 0  9998
2 42041  97.4894 309.1293 0006013 309.0830  50.9871 15.23037411 30677
FLOCK 3P-56             
1 42042U 17008CY  17247.88068726  .00004046  00000-0  17383-3 0  9993
2 42042  97.4892 309.1253 0005999 307.7044  52.3648 15.23242850 30466
FLOCK 3P-81             
1 42043U 17008CZ  17247.86574967  .00004071  00000-0  17652-3 0  9998
2 42043  97.4919 309.0756 0006629 281.1405  78.9086 15.22920826 29846
FLOCK 3P-87             
1 42044U 17008DA  17247.93995281  .00003855  00000-0  16736-3 0  9994
2 42044  97.4914 309.1203 0006764 277.0333  83.0134 15.22916141 30000
FLOCK 3P-29             
1 42045U 17008DB  17247.94170235  .00002526  00000-0  11074-3 0  9994
2 42045  97.4898 309.0673 0006451 272.8862  87.1636 15.22913730 29859
FLOCK 3P-82             
1 42046U 17008DC  17247.74620736  .00006486  00000-0  27939-3 0  9995
2 42046  97.4917 308.9245 0006872 278.2234  81.8223 15.22917054 29873
FLOCK 3P-78             
1 42047U 17008DD  17247.93913134  .00003680  00000-0  15992-3 0  9993
2 42047  97.4918 309.1284 0006710 276.4654  83.5819 15.22913761 29835
FLOCK 3P-74             
1 42048U 17008DE  17247.88164203  .00005178  00000-0  22401-3 0  9990
2 42048  97.4920 309.0586 0006992 277.8412  82.2031 15.22868615 29820
FLOCK 3P-31             
1 42049U 17008DF  17247.88225219  .00004831  00000-0  20941-3 0  9998
2 42049  97.4899 308.9960 0006531 275.0512  84.9979 15.22838890 29282
FLOCK 3P-83             
1 42050U 17008DG  17247.88308888  .00002557  00000-0  11230-3 0  9998
2 42050  97.4916 309.0480 0006937 278.7015  81.3436 15.22835641 30553
FLOCK 3P-72             
1 42051U 17008DH  17247.86437018  .00002753  00000-0  12040-3 0  9993
2 42051  97.4922 309.0844 0006448 276.8033  83.2470 15.22917910 28142
LEMUR-2-REDFERN-GOES    
1 42059U 98067LA  17247.74876949  .00023681  00000-0  28968-3 0  9991
2 42059  51.6400 356.9731 0007037 239.1888 120.8413 15.60250648 28420
LEMUR-2-TRUTNA          
1 42067U 98067LC  17247.89222925  .00061073  00000-0  62787-3 0  9999
2 42067  51.6397 354.1748 0005535 245.2628 114.7791 15.64276967 28307
LEMUR-2-AUSTINTACIOUS   
1 42068U 98067LD  17247.71744420  .00038891  00000-0  45530-3 0  9999
2 42068  51.6401 356.7636 0006817 236.9579 123.0760 15.61128524 28350
LEMUR-2-TRUTNAHD        
1 42069U 98067LE  17247.86157709  .00028553  00000-0  34211-3 0  9992
2 42069  51.6408 356.2378 0006221 238.6464 121.3921 15.60686875 28422
HAVELSAT                
1 42700U 98067LH  17247.67955288  .00021633  00000-0  29069-3 0  9998
2 42700  51.6407   0.2605 0006066 266.5080  93.5219 15.57822672 17323
SOMP 2                  
1 42701U 98067LJ  17247.68893983  .00021859  00000-0  29679-3 0  9990
2 42701  51.6411   0.3269 0006021 266.1479  93.8825 15.57536984 17318
COLUMBIA                
1 42702U 98067LK  17247.79160730  .00053331  00000-0  63433-3 0  9996
2 42702  51.6402 358.7580 0006373 269.4220  90.6043 15.60577262 17275
SGSAT                   
1 42703U 98067LL  17247.69735250  .00039600  00000-0  49352-3 0  9998
2 42703  51.6393 359.6262 0001985 234.7836 125.2971 15.59503040 17247
CXBN-2                  
1 42704U 98067LM  17247.88870551  .00021027  00000-0  28611-3 0  9993
2 42704  51.6408 359.4091 0001655 219.1934 140.8938 15.57519819 17271
ICECUBE                 
1 42705U 98067LN  17247.87563362  .00032823  00000-0  43271-3 0  9997
2 42705  51.6418 359.3288 0001539 216.2049 143.8840 15.58103135 17339
PHOENIX                 
1 42706U 98067LP  17247.68506163  .00023417  00000-0  31631-3 0  9999
2 42706  51.6411   0.3031 0001314 254.5315 105.5532 15.57645031 17231
X-CUBESAT               
1 42707U 98067LQ  17247.74951581  .00023728  00000-0  31971-3 0  9997
2 42707  51.6404 359.9793 0001354 258.6834 101.4006 15.57703875 17239
QBEE50-LTU-OC           
1 42708U 98067LR  17247.68815705  .00022271  00000-0  30123-3 0  9998
2 42708  51.6404   0.3198 0001405 256.6485 103.4350 15.57641940 17185
ALTAIR PATHFINDER       
1 42711U 98067LS  17247.92934360  .00017122  00000-0  24288-3 0  9992
2 42711  51.6408 359.6762 0003990 197.9353 162.1499 15.56545257 16922
SHARC                   
1 42712U 98067LT  17247.73631485  .00016995  00000-0  24248-3 0  9997
2 42712  51.6412   0.6421 0002089 197.0510 163.0411 15.56397758 17136
ZA-AEROSAT              
1 42713U 98067LU  17247.71092567  .00019539  00000-0  27060-3 0  9990
2 42713  51.6409   0.4720 0001829 194.6147 165.4793 15.57096263 16892
LINK                    
1 42714U 98067LV  17247.88806501  .00029113  00000-0  38764-3 0  9992
2 42714  51.6402 359.4005 0001720 214.3529 145.7352 15.57900236 17036
CSUNSAT 1               
1 42715U 98067LW  17247.71716309  .00020472  00000-0  28311-3 0  9997
2 42715  51.6405   0.5094 0003956 187.7583 172.3348 15.57098077 16893
UPSAT                   
1 42716U 98067LX  17247.74489946  .00027981  00000-0  37150-3 0  9998
2 42716  51.6409 359.9488 0004588 272.1766  87.8701 15.57992168 17034
SPACECUBE               
1 42717U 98067LY  17247.82548854  .00021351  00000-0  29059-3 0  9996
2 42717  51.6406 359.7362 0004449 271.3701  88.6782 15.57496752 16289
HOOPOE                  
1 42718U 98067LZ  17247.94570672  .00025202  00000-0  33815-3 0  9997
2 42718  51.6407 359.0407 0004521 270.9431  89.1044 15.57771750 16304
CHALLENGER              
1 42721U 98067MA  17247.81963850  .00033301  00000-0  43651-3 0  9999
2 42721  51.6401 359.6923 0007290 249.1514 110.8698 15.58222726 15982
NJUST-1                 
1 42722U 98067MB  17247.79638960  .00020208  00000-0  28223-3 0  9998
2 42722  51.6406   0.2897 0007214 247.1514 112.8717 15.56822095 15977
UNSW-ECO                
1 42723U 98067MC  17247.84295369  .00026772  00000-0  36246-3 0  9993
2 42723  51.6410 359.8527 0007134 248.0131 112.0103 15.57477776 15965
DUTHSAT                 
1 42724U 98067MD  17247.89251229  .00032043  00000-0  42306-3 0  9998
2 42724  51.6408 359.4313 0006370 253.2917 106.7376 15.58057451 15915
LILACSAT-1              
1 42725U 98067ME  17247.92611156  .00021626  00000-0  30025-3 0  9992
2 42725  51.6410 359.6578 0006254 251.9401 108.0910 15.56941230 15912
NSIGHT-1                
1 42726U 98067MF  17247.88658074  .00010957  00000-0  16078-3 0  9995
2 42726  51.6413   0.1439 0006171 250.0198 110.0130 15.56063551 15896
SNUSAT-1                
1 42727U 98067MG  17247.92447488  .00021078  00000-0  29191-3 0  9992
2 42727  51.6402 359.6403 0007326 210.2683 149.7886 15.57019783 15861
QBITO                   
1 42728U 98067MH  17247.78320677  .00024886  00000-0  34006-3 0  9998
2 42728  51.6416   0.2069 0003649 263.3933  96.6644 15.57292130 15686
AALTO-2                 
1 42729U 98067MJ  17247.78302293  .00024697  00000-0  33754-3 0  9992
2 42729  51.6409   0.2028 0003623 263.0321  97.0259 15.57291616 15690
SUSAT                   
1 42730U 98067MK  17247.78706596  .00024080  00000-0  33099-3 0  9996
2 42730  51.6409   0.2282 0003662 260.3853  99.6725 15.57153234 15685
I-INSPIRE II            
1 42731U 98067ML  17247.77565255  .00026886  00000-0  36205-3 0  9999
2 42731  51.6399   0.1451 0006523 196.8748 163.2028 15.57624732 15732
POLYITAN-2-SAU          
1 42732U 98067MM  17247.71634943  .00024197  00000-0  32982-3 0  9996
2 42732  51.6400   0.4984 0006732 195.5398 164.5388 15.57361356 15721
SNUSAT-1B               
1 42733U 98067MN  17247.78775967  .00024674  00000-0  33836-3 0  9995
2 42733  51.6405   0.2262 0006585 197.2919 162.7850 15.57186678 15735
EXALTA-1                
1 42734U 98067MP  17247.83994804  .00027486  00000-0  37035-3 0  9994
2 42734  51.6401 359.8263 0008369 222.3427 137.6920 15.57580746 15690
AOXIANG-1               
1 42735U 98067MQ  17247.79398362  .00020608  00000-0  28692-3 0  9995
2 42735  51.6407   0.2725 0007834 243.2148 116.8042 15.56887930 17101
BEEAGLESAT              
1 42736U 98067MR  17247.72784304  .00022010  00000-0  30457-3 0  9995
2 42736  51.6408   0.5812 0007697 242.5815 117.4395 15.57009280 15788
ATLANTIS                
1 42737U 98067MS  17247.53036170  .00045306  00000-0  56244-3 0  9991
2 42737  51.6390   0.7570 0007607 246.6116 113.4077 15.59515336 15657
LEMUR-2-ANGELA          
1 42752U 17019B   17247.93937097  .00002494  00000-0  10365-3 0  9993
2 42752  51.6420  18.2170 0010215 267.8683  92.1127 15.27682327 13489
